OBJECT_NAME,OBJECT_ID,EPOCH,MEAN_MOTION,ECCENTRICITY,INCLINATION,RA_OF_ASC_NODE,ARG_OF_PERICENTER,MEAN_ANOMALY,EPHEMERIS_TYPE,CLASSIFICATION_TYPE,NORAD_CAT_ID,ELEMENT_SET_NO,REV_AT_EPOCH,BSTAR,MEAN_MOTION_DOT,MEAN_MOTION_DDOT
STARLINK-33774,2025-087AA,2026-07-22T14:05:40.843392,15.31732087,.00023911,53.1580,312.2192,99.5013,260.6259,0,U,63721,999,6986,.66710477E-3,.20414E-3,0
STARLINK-33767,2025-087AB,2026-07-22T13:55:00.412896,15.30217537,.00013515,53.1593,312.8766,100.9306,259.1847,0,U,63722,999,6985,.62070963E-3,.18079E-3,0
STARLINK-33806,2025-087AC,2026-07-22T14:04:07.384512,15.30224203,.00019607,53.1571,312.9152,98.8261,261.2962,0,U,63723,999,6985,.72316006E-3,.21136E-3,0
STARLINK-11677 [DTC],2025-089A,2026-07-22T07:20:32.282016,15.70896553,.0002285,43.0015,201.1391,294.6636,65.3994,0,U,63751,999,7130,.17229732E-2,.227329E-2,0
STARLINK-11702 [DTC],2025-089B,2026-07-22T09:45:25.802496,15.71058377,.00015045,42.9991,200.1557,249.3736,110.6971,0,U,63752,999,7132,.17180574E-2,.228247E-2,0
STARLINK-11706 [DTC],2025-089C,2026-07-22T00:13:07.947264,15.70882959,.00013691,42.9988,202.3289,313.7841,46.2913,0,U,63753,999,7126,.15686038E-2,.20627E-2,0
STARLINK-11662 [DTC],2025-089D,2026-07-21T01:57:58.220640,15.70881494,.00043667,43.0041,208.2925,322.7841,37.2724,0,U,63754,999,7116,.92566294E-3,.120313E-2,0
STARLINK-11681 [DTC],2025-089E,2026-07-22T07:12:53.289792,15.70855893,.00010023,43.0000,201.0922,269.5832,90.4921,0,U,63755,999,7130,.14119115E-2,.184928E-2,0
STARLINK-11688 [DTC],2025-089F,2026-07-22T12:55:57.209376,15.71254314,.00010225,43.0001,199.4313,272.2281,87.8469,0,U,63756,999,7123,.12393044E-2,.164604E-2,0
STARLINK-11676 [DTC],2025-089G,2026-07-22T07:35:38.746752,15.70850772,.0000745,42.9998,200.3227,320.1153,39.9660,0,U,63757,999,7120,.13114121E-2,.171415E-2,0
STARLINK-11705 [DTC],2025-089H,2026-07-22T08:36:47.873088,15.70921736,.00027557,43.0013,200.6671,256.2601,103.7960,0,U,63758,999,7126,.11885121E-2,.155485E-2,0
STARLINK-11703 [DTC],2025-089J,2026-07-22T09:37:47.013312,15.71046063,.00022485,43.0014,200.1097,275.4834,84.5777,0,U,63759,999,7132,.16681687E-2,.22131E-2,0
STARLINK-11701 [DTC],2025-089K,2026-07-22T00:05:29.083776,15.70964459,.00014936,43.0001,202.2813,232.3937,127.6795,0,U,63760,999,7126,.15920037E-2,.210172E-2,0
STARLINK-11660 [DTC],2025-089L,2026-07-22T00:20:46.956768,15.70816197,.0002369,43.0002,202.3661,322.1427,37.9274,0,U,63761,999,7121,.1883554E-2,.248356E-2,0
STARLINK-11699 [DTC],2025-089M,2026-07-22T08:59:44.428128,15.71056663,.00022272,43.0004,200.7917,273.8551,86.2062,0,U,63762,999,7131,.13707751E-2,.180969E-2,0
STARLINK-11693 [DTC],2025-089N,2026-07-21T16:51:57.456576,15.70874052,.00016413,43.0002,204.3309,58.3769,301.7259,0,U,63763,999,7110,.13286164E-2,.173893E-2,0
STARLINK-33760,2025-089P,2026-07-22T12:00:02.683584,15.27591744,.00016725,43.0021,4.0180,250.1882,109.8789,0,U,63764,999,6957,.81111332E-3,.22133E-3,0
STARLINK-33941,2025-089Q,2026-07-22T12:03:44.853408,15.27611640,.00013495,42.9980,4.0321,192.3784,167.7035,0,U,63765,999,6956,.86099427E-3,.23529E-3,0
STARLINK-33824,2025-089R,2026-07-22T12:27:48.310560,15.27601009,.00012422,43.0001,4.1628,253.2251,106.8465,0,U,63766,999,6957,.51830996E-3,.14037E-3,0
STARLINK-33808,2025-089S,2026-07-22T11:47:05.556192,15.27601363,.00023882,42.9967,3.9404,172.9063,187.1823,0,U,63767,999,6957,.771654E-3,.21047E-3,0
STARLINK-33844,2025-089T,2026-07-22T11:19:21.271008,15.27587819,.00007016,42.9958,3.8033,186.3312,173.7531,0,U,63768,999,6957,.92667504E-3,.25332E-3,0
STARLINK-33907,2025-089U,2026-07-22T11:54:29.983968,15.27600922,.00006798,43.0001,3.9864,218.2757,141.8046,0,U,63769,999,6952,.68872129E-3,.1875E-3,0
STARLINK-33884,2025-089V,2026-07-22T11:21:11.499264,15.27606950,.00021794,43.0020,3.8151,284.0217,76.0392,0,U,63770,999,6952,.85885205E-3,.23467E-3,0
STARLINK-33841,2025-089W,2026-07-22T11:32:18.353472,15.27596834,.00014838,43.0027,3.8712,267.8261,92.2421,0,U,63771,999,6952,.63067234E-3,.17142E-3,0
STARLINK-33769,2025-089X,2026-07-22T11:17:29.427936,15.27593157,.00008347,43.0011,3.7947,186.9257,173.1583,0,U,63773,999,6956,.66005066E-3,.17952E-3,0
STARLINK-33914,2025-089Y,2026-07-22T10:59:40.462944,15.27604772,.00018546,43.0003,0.2017,155.1980,204.8961,0,U,63774,999,6961,.88904973E-3,.24302E-3,0
STARLINK-33932,2025-091A,2026-07-22T12:20:50.219232,15.27600677,.00014506,43.0040,10.9582,259.9889,100.0799,0,U,63775,999,6956,.58619634E-3,.15914E-3,0
STARLINK-33930,2025-091B,2026-07-22T11:36:38.706912,15.27596724,.00023721,43.0008,11.5922,279.6323,80.4261,0,U,63776,999,6951,.69544867E-3,.18935E-3,0
STARLINK-33911,2025-091C,2026-07-22T12:16:39.946080,15.27609618,.00023544,43.0017,3.9698,273.6973,86.3609,0,U,63777,999,6960,.86553962E-3,.23654E-3,0
STARLINK-33938,2025-091D,2026-07-22T11:10:44.292288,15.27607051,.00010688,43.0027,11.4545,268.3561,91.7168,0,U,63778,999,6960,.10360662E-2,.28381E-3,0
