{"epoch":1784762836,"count":18316,"objects":[{"id":"63721","name":"STARLINK-33774","type":"PAYLOAD","l1":"1 63721U 25087AA  26203.58727828  .00020414  00000-0  66710-3 0  9995","l2":"2 63721  53.1580 312.2192 0002391  99.5013 260.6259 15.31732087 69861"},{"id":"63722","name":"STARLINK-33767","type":"PAYLOAD","l1":"1 63722U 25087AB  26203.57986589  .00018079  00000-0  62071-3 0  9996","l2":"2 63722  53.1593 312.8766 0001351 100.9306 259.1847 15.30217537 69858"},{"id":"63723","name":"STARLINK-33806","type":"PAYLOAD","l1":"1 63723U 25087AC  26203.58619658  .00021136  00000-0  72316-3 0  9999","l2":"2 63723  53.1571 312.9152 0001961  98.8261 261.2962 15.30224203 69857"},{"id":"63751","name":"STARLINK-11677","type":"PAYLOAD","l1":"1 63751U 25089A   26203.30592919  .00227329  00000-0  17230-2 0  9997","l2":"2 63751  43.0015 201.1391 0002285 294.6636  65.3994 15.70896553 71303"},{"id":"63752","name":"STARLINK-11702","type":"PAYLOAD","l1":"1 63752U 25089B   26203.40654864  .00228247  00000-0  17181-2 0  9992","l2":"2 63752  42.9991 200.1557 0001505 249.3736 110.6971 15.71058377 71326"},{"id":"63753","name":"STARLINK-11706","type":"PAYLOAD","l1":"1 63753U 25089C   26203.00911976  .00206270  00000-0  15686-2 0  9999","l2":"2 63753  42.9988 202.3289 0001369 313.7841  46.2913 15.70882959 71263"},{"id":"63754","name":"STARLINK-11662","type":"PAYLOAD","l1":"1 63754U 25089D   26202.08192385  .00120313  00000-0  92566-3 0  9998","l2":"2 63754  43.0041 208.2925 0004367 322.7841  37.2724 15.70881494 71161"},{"id":"63755","name":"STARLINK-11681","type":"PAYLOAD","l1":"1 63755U 25089E   26203.30061678  .00184928  00000-0  14119-2 0  9994","l2":"2 63755  43.0000 201.0922 0001002 269.5832  90.4921 15.70855893 71306"},{"id":"63756","name":"STARLINK-11688","type":"PAYLOAD","l1":"1 63756U 25089F   26203.53885659  .00164604  00000-0  12393-2 0  9994","l2":"2 63756  43.0001 199.4313 0001022 272.2281  87.8469 15.71254314 71234"},{"id":"63757","name":"STARLINK-11676","type":"PAYLOAD","l1":"1 63757U 25089G   26203.31642068  .00171415  00000-0  13114-2 0  9996","l2":"2 63757  42.9998 200.3227 0000745 320.1153  39.9660 15.70850772 71203"},{"id":"63758","name":"STARLINK-11705","type":"PAYLOAD","l1":"1 63758U 25089H   26203.35888742  .00155485  00000-0  11885-2 0  9994","l2":"2 63758  43.0013 200.6671 0002756 256.2601 103.7960 15.70921736 71269"},{"id":"63759","name":"STARLINK-11703","type":"PAYLOAD","l1":"1 63759U 25089J   26203.40123858  .00221310  00000-0  16682-2 0  9992","l2":"2 63759  43.0014 200.1097 0002249 275.4834  84.5777 15.71046063 71327"},{"id":"63760","name":"STARLINK-11701","type":"PAYLOAD","l1":"1 63760U 25089K   26203.00380884  .00210172  00000-0  15920-2 0  9992","l2":"2 63760  43.0001 202.2813 0001494 232.3937 127.6795 15.70964459 71260"},{"id":"63761","name":"STARLINK-11660","type":"PAYLOAD","l1":"1 63761U 25089L   26203.01443237  .00248356  00000-0  18836-2 0  9990","l2":"2 63761  43.0002 202.3661 0002369 322.1427  37.9274 15.70816197 71213"},{"id":"63762","name":"STARLINK-11699","type":"PAYLOAD","l1":"1 63762U 25089M   26203.37481977  .00180969  00000-0  13708-2 0  9991","l2":"2 63762  43.0004 200.7917 0002227 273.8551  86.2062 15.71056663 71313"},{"id":"63763","name":"STARLINK-11693","type":"PAYLOAD","l1":"1 63763U 25089N   26202.70274834  .00173893  00000-0  13286-2 0  9999","l2":"2 63763  43.0002 204.3309 0001641  58.3769 301.7259 15.70874052 71102"},{"id":"63764","name":"STARLINK-33760","type":"PAYLOAD","l1":"1 63764U 25089P   26203.50003106  .00022133  00000-0  81111-3 0  9994","l2":"2 63764  43.0021   4.0180 0001672 250.1882 109.8789 15.27591744 69577"},{"id":"63765","name":"STARLINK-33941","type":"PAYLOAD","l1":"1 63765U 25089Q   26203.50260247  .00023529  00000-0  86099-3 0  9996","l2":"2 63765  42.9980   4.0321 0001350 192.3784 167.7035 15.27611640 69562"},{"id":"63766","name":"STARLINK-33824","type":"PAYLOAD","l1":"1 63766U 25089R   26203.51930915  .00014037  00000-0  51831-3 0  9994","l2":"2 63766  43.0001   4.1628 0001242 253.2251 106.8465 15.27601009 69576"},{"id":"63767","name":"STARLINK-33808","type":"PAYLOAD","l1":"1 63767U 25089S   26203.49103653  .00021047  00000-0  77165-3 0  9990","l2":"2 63767  42.9967   3.9404 0002388 172.9063 187.1823 15.27601363 69578"},{"id":"63768","name":"STARLINK-33844","type":"PAYLOAD","l1":"1 63768U 25089T   26203.47177397  .00025332  00000-0  92668-3 0  9991","l2":"2 63768  42.9958   3.8033 0000702 186.3312 173.7531 15.27587819 69576"},{"id":"63769","name":"STARLINK-33907","type":"PAYLOAD","l1":"1 63769U 25089U   26203.49618037  .00018750  00000-0  68872-3 0  9991","l2":"2 63769  43.0001   3.9864 0000680 218.2757 141.8046 15.27600922 69527"},{"id":"63770","name":"STARLINK-33884","type":"PAYLOAD","l1":"1 63770U 25089V   26203.47304976  .00023467  00000-0  85885-3 0  9999","l2":"2 63770  43.0020   3.8151 0002179 284.0217  76.0392 15.27606950 69525"},{"id":"63771","name":"STARLINK-33841","type":"PAYLOAD","l1":"1 63771U 25089W   26203.48076798  .00017142  00000-0  63067-3 0  9990","l2":"2 63771  43.0027   3.8712 0001484 267.8261  92.2421 15.27596834 69524"},{"id":"63773","name":"STARLINK-33769","type":"PAYLOAD","l1":"1 63773U 25089X   26203.47047949  .00017952  00000-0  66005-3 0  9991","l2":"2 63773  43.0011   3.7947 0000835 186.9257 173.1583 15.27593157 69560"},{"id":"63774","name":"STARLINK-33914","type":"PAYLOAD","l1":"1 63774U 25089Y   26203.45810721  .00024302  00000-0  88905-3 0  9996","l2":"2 63774  43.0003   0.2017 0001855 155.1980 204.8961 15.27604772 69610"},{"id":"63775","name":"STARLINK-33932","type":"PAYLOAD","l1":"1 63775U 25091A   26203.51447013  .00015914  00000-0  58620-3 0  9997","l2":"2 63775  43.0040  10.9582 0001451 259.9889 100.0799 15.27600677 69560"},{"id":"63776","name":"STARLINK-33930","type":"PAYLOAD","l1":"1 63776U 25091B   26203.48378133  .00018935  00000-0  69545-3 0  9994","l2":"2 63776  43.0008  11.5922 0002372 279.6323  80.4261 15.27596724 69512"},{"id":"63777","name":"STARLINK-33911","type":"PAYLOAD","l1":"1 63777U 25091C   26203.51157345  .00023654  00000-0  86554-3 0  9992","l2":"2 63777  43.0017   3.9698 0002354 273.6973  86.3609 15.27609618 69601"},{"id":"63778","name":"STARLINK-33938","type":"PAYLOAD","l1":"1 63778U 25091D   26203.46579042  .00028381  00000-0  10361-2 0  9993","l2":"2 63778  43.0027  11.4545 0001069 268.3561  91.7168 15.27607051 69603"}]}